{
  "type": "FeatureCollection",
  "features": [
    {
      "type": "Feature",
      "properties": {
        "norad_id": 32143,
        "name": "FENGYUN 1C DEB",
        "group": "fengyun-1c-debris",
        "lat": -71.73023273807122,
        "lon": -6.698071855304492,
        "alt_km": 914.6488050214821,
        "timestamp": "2025-12-15T04:01:20.737160+00:00",
        "meta_object_name": "FENGYUN 1C DEB",
        "meta_object_id": "1999-025CSM",
        "meta_epoch": "2025-12-14T04:39:57.282336",
        "meta_mean_motion": 14.17971614,
        "meta_eccentricity": 0.01045462,
        "meta_inclination": 98.5978,
        "meta_ra_of_asc_node": 325.0834,
        "meta_arg_of_pericenter": 104.5048,
        "meta_mean_anomaly": 256.7753,
        "meta_ephemeris_type": 0,
        "meta_classification_type": "U",
        "meta_norad_cat_id": 32143,
        "meta_element_set_no": 999,
        "meta_rev_at_epoch": 95954,
        "meta_bstar": 0.00022389127,
        "meta_mean_motion_dot": 4.42e-06,
        "meta_mean_motion_ddot": 0,
        "tle_line1": "1 32143U 99025CSM 25348.19441299  .00000442  00000+0  22389-3 0  9995",
        "tle_line2": "2 32143  98.5978 325.0834 0104546 104.5048 256.7753 14.17971614959546"
      },
      "geometry": {
        "type": "Point",
        "coordinates": [
          -6.698071855304492,
          -71.73023273807122
        ]
      }
    },
    {
      "type": "Feature",
      "properties": {
        "norad_id": 32150,
        "name": "FENGYUN 1C DEB",
        "group": "fengyun-1c-debris",
        "lat": 45.63028326480213,
        "lon": -158.19156714642617,
        "alt_km": 649.9469122179598,
        "timestamp": "2025-12-15T04:01:20.737170+00:00",
        "meta_object_name": "FENGYUN 1C DEB",
        "meta_object_id": "1999-025CSU",
        "meta_epoch": "2025-12-12T19:31:59.214720",
        "meta_mean_motion": 14.60669325,
        "meta_eccentricity": 0.017193,
        "meta_inclination": 99.1914,
        "meta_ra_of_asc_node": 9.67,
        "meta_arg_of_pericenter": 67.4732,
        "meta_mean_anomaly": 294.4563,
        "meta_ephemeris_type": 0,
        "meta_classification_type": "U",
        "meta_norad_cat_id": 32150,
        "meta_element_set_no": 999,
        "meta_rev_at_epoch": 97707,
        "meta_bstar": 0.00022068603,
        "meta_mean_motion_dot": 1.257e-05,
        "meta_mean_motion_ddot": 0,
        "tle_line1": "1 32150U 99025CSU 25346.81387980  .00001257  00000+0  22069-3 0  9996",
        "tle_line2": "2 32150  99.1914   9.6700 0171930  67.4732 294.4563 14.60669325977073"
      },
      "geometry": {
        "type": "Point",
        "coordinates": [
          -158.19156714642617,
          45.63028326480213
        ]
      }
    },
    {
      "type": "Feature",
      "properties": {
        "norad_id": 32152,
        "name": "FENGYUN 1C DEB",
        "group": "fengyun-1c-debris",
        "lat": -70.44637477396059,
        "lon": 176.16492366049562,
        "alt_km": 713.1012344055771,
        "timestamp": "2025-12-15T04:01:20.737180+00:00",
        "meta_object_name": "FENGYUN 1C DEB",
        "meta_object_id": "1999-025CSW",
        "meta_epoch": "2025-12-13T04:33:07.876800",
        "meta_mean_motion": 14.56753621,
        "meta_eccentricity": 0.00550486,
        "meta_inclination": 98.7606,
        "meta_ra_of_asc_node": 148.3543,
        "meta_arg_of_pericenter": 199.8134,
        "meta_mean_anomaly": 160.0925,
        "meta_ephemeris_type": 0,
        "meta_classification_type": "U",
        "meta_norad_cat_id": 32152,
        "meta_element_set_no": 999,
        "meta_rev_at_epoch": 62619,
        "meta_bstar": 0.0034882492,
        "meta_mean_motion_dot": 0.00015905,
        "meta_mean_motion_ddot": 0,
        "tle_line1": "1 32152U 99025CSW 25347.18967450  .00015905  00000+0  34882-2 0  9995",
        "tle_line2": "2 32152  98.7606 148.3543 0055048 199.8134 160.0925 14.56753621626193"
      },
      "geometry": {
        "type": "Point",
        "coordinates": [
          176.16492366049562,
          -70.44637477396059
        ]
      }
    },
    {
      "type": "Feature",
      "properties": {
        "norad_id": 32153,
        "name": "FENGYUN 1C DEB",
        "group": "fengyun-1c-debris",
        "lat": -5.451329633881125,
        "lon": 11.350873904812627,
        "alt_km": 603.2763459504085,
        "timestamp": "2025-12-15T04:01:20.737190+00:00",
        "meta_object_name": "FENGYUN 1C DEB",
        "meta_object_id": "1999-025CSX",
        "meta_epoch": "2025-12-14T07:15:59.779008",
        "meta_mean_motion": 14.48726079,
        "meta_eccentricity": 0.02072716,
        "meta_inclination": 98.7695,
        "meta_ra_of_asc_node": 191.2964,
        "meta_arg_of_pericenter": 216.5154,
        "meta_mean_anomaly": 142.1755,
        "meta_ephemeris_type": 0,
        "meta_classification_type": "U",
        "meta_norad_cat_id": 32153,
        "meta_element_set_no": 999,
        "meta_rev_at_epoch": 97246,
        "meta_bstar": 0.00040155107,
        "meta_mean_motion_dot": 1.929e-05,
        "meta_mean_motion_ddot": 0,
        "tle_line1": "1 32153U 99025CSX 25348.30277522  .00001929  00000+0  40155-3 0  9997",
        "tle_line2": "2 32153  98.7695 191.2964 0207271 216.5154 142.1755 14.48726079972466"
      },
      "geometry": {
        "type": "Point",
        "coordinates": [
          11.350873904812627,
          -5.451329633881125
        ]
      }
    },
    {
      "type": "Feature",
      "properties": {
        "norad_id": 32155,
        "name": "FENGYUN 1C DEB",
        "group": "fengyun-1c-debris",
        "lat": 30.323587042014637,
        "lon": -86.4282938188734,
        "alt_km": 825.9342782957483,
        "timestamp": "2025-12-15T04:01:20.737200+00:00",
        "meta_object_name": "FENGYUN 1C DEB",
        "meta_object_id": "1999-025CSZ",
        "meta_epoch": "2025-12-04T13:09:10.027872",
        "meta_mean_motion": 14.32912866,
        "meta_eccentricity": 0.0069286,
        "meta_inclination": 98.9526,
        "meta_ra_of_asc_node": 267.8922,
        "meta_arg_of_pericenter": 264.2615,
        "meta_mean_anomaly": 95.0665,
        "meta_ephemeris_type": 0,
        "meta_classification_type": "U",
        "meta_norad_cat_id": 32155,
        "meta_element_set_no": 999,
        "meta_rev_at_epoch": 70105,
        "meta_bstar": 0.001161,
        "meta_mean_motion_dot": 3.211e-05,
        "meta_mean_motion_ddot": 0,
        "tle_line1": "1 32155U 99025CSZ 25338.54803273  .00003211  00000+0  11610-2 0  9991",
        "tle_line2": "2 32155  98.9526 267.8922 0069286 264.2615  95.0665 14.32912866701056"
      },
      "geometry": {
        "type": "Point",
        "coordinates": [
          -86.4282938188734,
          30.323587042014637
        ]
      }
    },
    {
      "type": "Feature",
      "properties": {
        "norad_id": 32156,
        "name": "FENGYUN 1C DEB",
        "group": "fengyun-1c-debris",
        "lat": 28.268056402348122,
        "lon": 153.84075952990057,
        "alt_km": 728.9949465605741,
        "timestamp": "2025-12-15T04:01:20.737210+00:00",
        "meta_object_name": "FENGYUN 1C DEB",
        "meta_object_id": "1999-025CTA",
        "meta_epoch": "2025-12-08T07:32:53.302848",
        "meta_mean_motion": 14.31940306,
        "meta_eccentricity": 0.00822984,
        "meta_inclination": 99.3543,
        "meta_ra_of_asc_node": 151.5435,
        "meta_arg_of_pericenter": 70.1457,
        "meta_mean_anomaly": 290.8571,
        "meta_ephemeris_type": 0,
        "meta_classification_type": "U",
        "meta_norad_cat_id": 32156,
        "meta_element_set_no": 999,
        "meta_rev_at_epoch": 64757,
        "meta_bstar": 0.00055080587,
        "meta_mean_motion_dot": 1.483e-05,
        "meta_mean_motion_ddot": 0,
        "tle_line1": "1 32156U 99025CTA 25342.31450582  .00001483  00000+0  55081-3 0  9993",
        "tle_line2": "2 32156  99.3543 151.5435 0082298  70.1457 290.8571 14.31940306647571"
      },
      "geometry": {
        "type": "Point",
        "coordinates": [
          153.84075952990057,
          28.268056402348122
        ]
      }
    },
    {
      "type": "Feature",
      "properties": {
        "norad_id": 32160,
        "name": "FENGYUN 1C DEB",
        "group": "fengyun-1c-debris",
        "lat": -61.94837910240135,
        "lon": -50.64905038392739,
        "alt_km": 791.8389074909492,
        "timestamp": "2025-12-15T04:01:20.737221+00:00",
        "meta_object_name": "FENGYUN 1C DEB",
        "meta_object_id": "1999-025CTE",
        "meta_epoch": "2025-12-12T21:26:10.613760",
        "meta_mean_motion": 14.37568487,
        "meta_eccentricity": 0.00820527,
        "meta_inclination": 98.8811,
        "meta_ra_of_asc_node": 144.0659,
        "meta_arg_of_pericenter": 358.4462,
        "meta_mean_anomaly": 1.6457,
        "meta_ephemeris_type": 0,
        "meta_classification_type": "U",
        "meta_norad_cat_id": 32160,
        "meta_element_set_no": 999,
        "meta_rev_at_epoch": 95889,
        "meta_bstar": 0.00064978761,
        "meta_mean_motion_dot": 1.977e-05,
        "meta_mean_motion_ddot": 0,
        "tle_line1": "1 32160U 99025CTE 25346.89317840  .00001977  00000+0  64979-3 0  9998",
        "tle_line2": "2 32160  98.8811 144.0659 0082052 358.4462   1.6457 14.37568487958892"
      },
      "geometry": {
        "type": "Point",
        "coordinates": [
          -50.64905038392739,
          -61.94837910240135
        ]
      }
    }
  ]
}